{
  "type": "FeatureCollection",
  "features": [
    {
      "type": "Feature",
      "properties": {
        "norad_id": 66842,
        "name": "STARLINK-35769",
        "group": "last-30-days",
        "lat": 26.567514056556902,
        "lon": -28.883697514686357,
        "alt_km": 408.67296834241824,
        "timestamp": "2025-12-26T03:50:10.808112+00:00",
        "meta_object_name": "STARLINK-35769",
        "meta_object_id": "2025-280X",
        "meta_epoch": "2025-12-25T16:21:43.530048",
        "meta_mean_motion": 15.52546492,
        "meta_eccentricity": 0.000316,
        "meta_inclination": 70.0007,
        "meta_ra_of_asc_node": 162.9191,
        "meta_arg_of_pericenter": 274.6719,
        "meta_mean_anomaly": 85.4107,
        "meta_ephemeris_type": 0,
        "meta_classification_type": "U",
        "meta_norad_cat_id": 66842,
        "meta_element_set_no": 999,
        "meta_rev_at_epoch": 494,
        "meta_bstar": 0.0015379,
        "meta_mean_motion_dot": 0.00095683,
        "meta_mean_motion_ddot": 0,
        "tle_line1": "1 66842U 25280X   25359.68175382  .00095683  00000+0  15379-2 0  9994",
        "tle_line2": "2 66842  70.0007 162.9191 0003160 274.6719  85.4107 15.52546492  4942"
      },
      "geometry": {
        "type": "Point",
        "coordinates": [
          -28.883697514686357,
          26.567514056556902
        ]
      }
    },
    {
      "type": "Feature",
      "properties": {
        "norad_id": 66843,
        "name": "STARLINK-35997",
        "group": "last-30-days",
        "lat": 23.0621624391988,
        "lon": -27.31623638990083,
        "alt_km": 409.29296231993794,
        "timestamp": "2025-12-26T03:50:10.808122+00:00",
        "meta_object_name": "STARLINK-35997",
        "meta_object_id": "2025-280Y",
        "meta_epoch": "2025-12-25T19:26:17.589120",
        "meta_mean_motion": 15.52542728,
        "meta_eccentricity": 0.0003582,
        "meta_inclination": 70.001,
        "meta_ra_of_asc_node": 162.5624,
        "meta_arg_of_pericenter": 272.5949,
        "meta_mean_anomaly": 87.4827,
        "meta_ephemeris_type": 0,
        "meta_classification_type": "U",
        "meta_norad_cat_id": 66843,
        "meta_element_set_no": 999,
        "meta_rev_at_epoch": 496,
        "meta_bstar": 0.0013079,
        "meta_mean_motion_dot": 0.00081195,
        "meta_mean_motion_ddot": 0,
        "tle_line1": "1 66843U 25280Y   25359.80992580  .00081195  00000+0  13079-2 0  9994",
        "tle_line2": "2 66843  70.0010 162.5624 0003582 272.5949  87.4827 15.52542728  4965"
      },
      "geometry": {
        "type": "Point",
        "coordinates": [
          -27.31623638990083,
          23.0621624391988
        ]
      }
    },
    {
      "type": "Feature",
      "properties": {
        "norad_id": 66844,
        "name": "STARLINK-36073",
        "group": "last-30-days",
        "lat": 19.393954353962066,
        "lon": -25.766052996864023,
        "alt_km": 400.1481789196114,
        "timestamp": "2025-12-26T03:50:10.808137+00:00",
        "meta_object_name": "STARLINK-36073",
        "meta_object_id": "2025-280Z",
        "meta_epoch": "2025-12-25T19:26:15.568224",
        "meta_mean_motion": 15.54990659,
        "meta_eccentricity": 0.0004574,
        "meta_inclination": 70.0007,
        "meta_ra_of_asc_node": 162.5631,
        "meta_arg_of_pericenter": 287.8507,
        "meta_mean_anomaly": 72.2182,
        "meta_ephemeris_type": 0,
        "meta_classification_type": "U",
        "meta_norad_cat_id": 66844,
        "meta_element_set_no": 999,
        "meta_rev_at_epoch": 493,
        "meta_bstar": 0.025895,
        "meta_mean_motion_dot": 0.01942872,
        "meta_mean_motion_ddot": 0,
        "tle_line1": "1 66844U 25280Z   25359.80990241  .01942872  00000+0  25895-1 0  9994",
        "tle_line2": "2 66844  70.0007 162.5631 0004574 287.8507  72.2182 15.54990659  4936"
      },
      "geometry": {
        "type": "Point",
        "coordinates": [
          -25.766052996864023,
          19.393954353962066
        ]
      }
    },
    {
      "type": "Feature",
      "properties": {
        "norad_id": 66845,
        "name": "STARLINK-36068",
        "group": "last-30-days",
        "lat": 17.72093904088943,
        "lon": -25.085627215465394,
        "alt_km": 410.06468782599677,
        "timestamp": "2025-12-26T03:50:10.808149+00:00",
        "meta_object_name": "STARLINK-36068",
        "meta_object_id": "2025-280AA",
        "meta_epoch": "2025-12-25T19:24:48.803616",
        "meta_mean_motion": 15.52541943,
        "meta_eccentricity": 0.0003455,
        "meta_inclination": 70.0011,
        "meta_ra_of_asc_node": 162.5585,
        "meta_arg_of_pericenter": 275.8979,
        "meta_mean_anomaly": 84.1814,
        "meta_ephemeris_type": 0,
        "meta_classification_type": "U",
        "meta_norad_cat_id": 66845,
        "meta_element_set_no": 999,
        "meta_rev_at_epoch": 496,
        "meta_bstar": 0.00091213,
        "meta_mean_motion_dot": 0.00056394,
        "meta_mean_motion_ddot": 0,
        "tle_line1": "1 66845U 25280AA  25359.80889819  .00056394  00000+0  91213-3 0  9996",
        "tle_line2": "2 66845  70.0011 162.5585 0003455 275.8979  84.1814 15.52541943  4960"
      },
      "geometry": {
        "type": "Point",
        "coordinates": [
          -25.085627215465394,
          17.72093904088943
        ]
      }
    },
    {
      "type": "Feature",
      "properties": {
        "norad_id": 66846,
        "name": "STARLINK-36055",
        "group": "last-30-days",
        "lat": 21.376235691575236,
        "lon": -26.59333350974705,
        "alt_km": 409.5394228326768,
        "timestamp": "2025-12-26T03:50:10.808161+00:00",
        "meta_object_name": "STARLINK-36055",
        "meta_object_id": "2025-280AB",
        "meta_epoch": "2025-12-25T17:53:01.855104",
        "meta_mean_motion": 15.52504965,
        "meta_eccentricity": 0.0003393,
        "meta_inclination": 70.001,
        "meta_ra_of_asc_node": 162.7379,
        "meta_arg_of_pericenter": 270.6917,
        "meta_mean_anomaly": 89.3881,
        "meta_ephemeris_type": 0,
        "meta_classification_type": "U",
        "meta_norad_cat_id": 66846,
        "meta_element_set_no": 999,
        "meta_rev_at_epoch": 495,
        "meta_bstar": 0.00066927,
        "meta_mean_motion_dot": 0.000412,
        "meta_mean_motion_ddot": 0,
        "tle_line1": "1 66846U 25280AB  25359.74516036  .00041200  00000+0  66927-3 0  9992",
        "tle_line2": "2 66846  70.0010 162.7379 0003393 270.6917  89.3881 15.52504965  4952"
      },
      "geometry": {
        "type": "Point",
        "coordinates": [
          -26.59333350974705,
          21.376235691575236
        ]
      }
    },
    {
      "type": "Feature",
      "properties": {
        "norad_id": 66847,
        "name": "STARLINK-36061",
        "group": "last-30-days",
        "lat": 19.50737270241268,
        "lon": -25.813285163021156,
        "alt_km": 409.6493864520826,
        "timestamp": "2025-12-26T03:50:10.808171+00:00",
        "meta_object_name": "STARLINK-36061",
        "meta_object_id": "2025-280AC",
        "meta_epoch": "2025-12-25T19:25:18.602976",
        "meta_mean_motion": 15.52542419,
        "meta_eccentricity": 0.0003258,
        "meta_inclination": 70.001,
        "meta_ra_of_asc_node": 162.56,
        "meta_arg_of_pericenter": 272.9086,
        "meta_mean_anomaly": 87.1728,
        "meta_ephemeris_type": 0,
        "meta_classification_type": "U",
        "meta_norad_cat_id": 66847,
        "meta_element_set_no": 999,
        "meta_rev_at_epoch": 496,
        "meta_bstar": 0.0012298,
        "meta_mean_motion_dot": 0.00076281,
        "meta_mean_motion_ddot": 0,
        "tle_line1": "1 66847U 25280AC  25359.80924309  .00076281  00000+0  12298-2 0  9994",
        "tle_line2": "2 66847  70.0010 162.5600 0003258 272.9086  87.1728 15.52542419  4963"
      },
      "geometry": {
        "type": "Point",
        "coordinates": [
          -25.813285163021156,
          19.50737270241268
        ]
      }
    },
    {
      "type": "Feature",
      "properties": {
        "norad_id": 66848,
        "name": "STARLINK-36091",
        "group": "last-30-days",
        "lat": -36.1911951709025,
        "lon": -10.555934432119827,
        "alt_km": 417.64422692845073,
        "timestamp": "2025-12-26T03:50:10.808181+00:00",
        "meta_object_name": "STARLINK-36091",
        "meta_object_id": "2025-281A",
        "meta_epoch": "2025-12-25T20:00:01.999008",
        "meta_mean_motion": 15.51282356,
        "meta_eccentricity": 8.86e-05,
        "meta_inclination": 43.0005,
        "meta_ra_of_asc_node": 43.0897,
        "meta_arg_of_pericenter": 265.7547,
        "meta_mean_anomaly": 9.2047,
        "meta_ephemeris_type": 0,
        "meta_classification_type": "U",
        "meta_norad_cat_id": 66848,
        "meta_element_set_no": 999,
        "meta_rev_at_epoch": 349,
        "meta_bstar": -0.019413,
        "meta_mean_motion_dot": -0.01060168,
        "meta_mean_motion_ddot": 0,
        "tle_line1": "1 66848U 25281A   25359.83335647 -.01060168  00000+0 -19413-1 0  9995",
        "tle_line2": "2 66848  43.0005  43.0897 0000886 265.7547   9.2047 15.51282356  3491"
      },
      "geometry": {
        "type": "Point",
        "coordinates": [
          -10.555934432119827,
          -36.1911951709025
        ]
      }
    }
  ]
}